[{"OBJECT_NAME":"GPS BIIR-2  (PRN 13)","OBJECT_ID":"1997-035A","EPOCH":"2026-03-02T00:10:05.233728","MEAN_MOTION":2.00563941,"ECCENTRICITY":0.0097882,"INCLINATION":55.934,"RA_OF_ASC_NODE":102.7649,"ARG_OF_PERICENTER":56.2826,"MEAN_ANOMALY":304.7274,"EPHEMERIS_TYPE":0,"CLASSIFICATION_TYPE":"U","NORAD_CAT_ID":24876,"ELEMENT_SET_NO":999,"REV_AT_EPOCH":20980,"BSTAR":0,"MEAN_MOTION_DOT":2.4e-7,"MEAN_MOTION_DDOT":0},{"OBJECT_NAME":"GPS BIIR-5  (PRN 22)","OBJECT_ID":"2000-040A","EPOCH":"2026-03-02T20:02:28.872096","MEAN_MOTION":2.00568869,"ECCENTRICITY":0.012274,"INCLINATION":54.8759,"RA_OF_ASC_NODE":219.3839,"ARG_OF_PERICENTER":302.5257,"MEAN_ANOMALY":229.5112,"EPHEMERIS_TYPE":0,"CLASSIFICATION_TYPE":"U","NORAD_CAT_ID":26407,"ELEMENT_SET_NO":999,"REV_AT_EPOCH":18781,"BSTAR":0,"MEAN_MOTION_DOT":-6.0e-8,"MEAN_MOTION_DDOT":0},{"OBJECT_NAME":"GPS BIIR-8  (PRN 16)","OBJECT_ID":"2003-005A","EPOCH":"2026-03-02T15:51:50.950368","MEAN_MOTION":2.00566327,"ECCENTRICITY":0.0148733,"INCLINATION":54.9077,"RA_OF_ASC_NODE":219.1988,"ARG_OF_PERICENTER":52.7044,"MEAN_ANOMALY":129.581,"EPHEMERIS_TYPE":0,"CLASSIFICATION_TYPE":"U","NORAD_CAT_ID":27663,"ELEMENT_SET_NO":999,"REV_AT_EPOCH":16917,"BSTAR":0,"MEAN_MOTION_DOT":-5.0e-8,"MEAN_MOTION_DDOT":0},{"OBJECT_NAME":"GPS BIIR-11 (PRN 19)","OBJECT_ID":"2004-009A","EPOCH":"2026-03-02T10:45:51.099840","MEAN_MOTION":2.0055811,"ECCENTRICITY":0.01108783,"INCLINATION":54.9176,"RA_OF_ASC_NODE":279.9987,"ARG_OF_PERICENTER":169.0152,"MEAN_ANOMALY":15.8009,"EPHEMERIS_TYPE":0,"CLASSIFICATION_TYPE":"U","NORAD_CAT_ID":28190,"ELEMENT_SET_NO":999,"REV_AT_EPOCH":16080,"BSTAR":0,"MEAN_MOTION_DOT":-5.0e-8,"MEAN_MOTION_DDOT":0},{"OBJECT_NAME":"GPS BIIR-13 (PRN 02)","OBJECT_ID":"2004-045A","EPOCH":"2026-03-02T02:12:58.285728","MEAN_MOTION":2.00573214,"ECCENTRICITY":0.0170883,"INCLINATION":55.196,"RA_OF_ASC_NODE":329.2124,"ARG_OF_PERICENTER":312.7311,"MEAN_ANOMALY":38.2097,"EPHEMERIS_TYPE":0,"CLASSIFICATION_TYPE":"U","NORAD_CAT_ID":28474,"ELEMENT_SET_NO":999,"REV_AT_EPOCH":15627,"BSTAR":0,"MEAN_MOTION_DOT":-8.9e-7,"MEAN_MOTION_DDOT":0},{"OBJECT_NAME":"GPS BIIRM-1 (PRN 17)","OBJECT_ID":"2005-038A","EPOCH":"2026-03-02T08:19:20.265312","MEAN_MOTION":2.00573091,"ECCENTRICITY":0.01288568,"INCLINATION":54.9646,"RA_OF_ASC_NODE":277.4881,"ARG_OF_PERICENTER":295.3112,"MEAN_ANOMALY":199.7188,"EPHEMERIS_TYPE":0,"CLASSIFICATION_TYPE":"U","NORAD_CAT_ID":28874,"ELEMENT_SET_NO":999,"REV_AT_EPOCH":14969,"BSTAR":0,"MEAN_MOTION_DOT":-1.0e-8,"MEAN_MOTION_DDOT":0},{"OBJECT_NAME":"GPS BIIRM-2 (PRN 31)","OBJECT_ID":"2006-042A","EPOCH":"2026-03-02T07:38:30.683616","MEAN_MOTION":2.00575396,"ECCENTRICITY":0.01067758,"INCLINATION":54.6983,"RA_OF_ASC_NODE":155.5829,"ARG_OF_PERICENTER":52.8691,"MEAN_ANOMALY":318.6625,"EPHEMERIS_TYPE":0,"CLASSIFICATION_TYPE":"U","NORAD_CAT_ID":29486,"ELEMENT_SET_NO":999,"REV_AT_EPOCH":14225,"BSTAR":0,"MEAN_MOTION_DOT":-1.5e-7,"MEAN_MOTION_DDOT":0},{"OBJECT_NAME":"GPS BIIRM-3 (PRN 12)","OBJECT_ID":"2006-052A","EPOCH":"2026-03-01T17:17:53.575872","MEAN_MOTION":2.00551399,"ECCENTRICITY":0.0087916,"INCLINATION":54.9582,"RA_OF_ASC_NODE":218.2634,"ARG_OF_PERICENTER":89.3209,"MEAN_ANOMALY":271.6418,"EPHEMERIS_TYPE":0,"CLASSIFICATION_TYPE":"U","NORAD_CAT_ID":29601,"ELEMENT_SET_NO":999,"REV_AT_EPOCH":14125,"BSTAR":0,"MEAN_MOTION_DOT":-1.0e-8,"MEAN_MOTION_DDOT":0},{"OBJECT_NAME":"GPS BIIRM-4 (PRN 15)","OBJECT_ID":"2007-047A","EPOCH":"2026-03-02T00:39:53.539200","MEAN_MOTION":2.00560797,"ECCENTRICITY":0.01635843,"INCLINATION":54.0137,"RA_OF_ASC_NODE":84.4816,"ARG_OF_PERICENTER":85.9369,"MEAN_ANOMALY":275.9982,"EPHEMERIS_TYPE":0,"CLASSIFICATION_TYPE":"U","NORAD_CAT_ID":32260,"ELEMENT_SET_NO":999,"REV_AT_EPOCH":13466,"BSTAR":0,"MEAN_MOTION_DOT":1.1e-7,"MEAN_MOTION_DDOT":0},{"OBJECT_NAME":"GPS BIIRM-5 (PRN 29)","OBJECT_ID":"2007-062A","EPOCH":"2026-03-02T20:16:38.398368","MEAN_MOTION":2.00553401,"ECCENTRICITY":0.0032886,"INCLINATION":55.116,"RA_OF_ASC_NODE":278.4263,"ARG_OF_PERICENTER":160.6557,"MEAN_ANOMALY":197.51,"EPHEMERIS_TYPE":0,"CLASSIFICATION_TYPE":"U","NORAD_CAT_ID":32384,"ELEMENT_SET_NO":999,"REV_AT_EPOCH":13337,"BSTAR":0,"MEAN_MOTION_DOT":-7.0e-8,"MEAN_MOTION_DDOT":0},{"OBJECT_NAME":"GPS BIIRM-6 (PRN 07)","OBJECT_ID":"2008-012A","EPOCH":"2026-03-02T10:40:14.185632","MEAN_MOTION":2.00569072,"ECCENTRICITY":0.0206858,"INCLINATION":54.4823,"RA_OF_ASC_NODE":154.1905,"ARG_OF_PERICENTER":246.1508,"MEAN_ANOMALY":111.6887,"EPHEMERIS_TYPE":0,"CLASSIFICATION_TYPE":"U","NORAD_CAT_ID":32711,"ELEMENT_SET_NO":999,"REV_AT_EPOCH":13161,"BSTAR":0,"MEAN_MOTION_DOT":-1.3e-7,"MEAN_MOTION_DDOT":0},{"OBJECT_NAME":"GPS BIIRM-8 (PRN 05)","OBJECT_ID":"2009-043A","EPOCH":"2026-03-02T01:34:55.971840","MEAN_MOTION":2.00560508,"ECCENTRICITY":0.00516601,"INCLINATION":56.1467,"RA_OF_ASC_NODE":31.6595,"ARG_OF_PERICENTER":80.7077,"MEAN_ANOMALY":21.8525,"EPHEMERIS_TYPE":0,"CLASSIFICATION_TYPE":"U","NORAD_CAT_ID":35752,"ELEMENT_SET_NO":999,"REV_AT_EPOCH":12121,"BSTAR":0,"MEAN_MOTION_DOT":-7.5e-7,"MEAN_MOTION_DDOT":0},{"OBJECT_NAME":"GPS BIIF-1  (PRN 25)","OBJECT_ID":"2010-022A","EPOCH":"2026-03-02T18:13:10.394112","MEAN_MOTION":2.00557144,"ECCENTRICITY":0.0127355,"INCLINATION":54.2892,"RA_OF_ASC_NODE":212.8472,"ARG_OF_PERICENTER":65.8685,"MEAN_ANOMALY":294.0033,"EPHEMERIS_TYPE":0,"CLASSIFICATION_TYPE":"U","NORAD_CAT_ID":36585,"ELEMENT_SET_NO":999,"REV_AT_EPOCH":11545,"BSTAR":0,"MEAN_MOTION_DOT":-1.1e-7,"MEAN_MOTION_DDOT":0},{"OBJECT_NAME":"GPS BIIF-3  (PRN 24)","OBJECT_ID":"2012-053A","EPOCH":"2026-03-01T15:00:43.413408","MEAN_MOTION":2.00565726,"ECCENTRICITY":0.01769104,"INCLINATION":53.5656,"RA_OF_ASC_NODE":148.0073,"ARG_OF_PERICENTER":64.7623,"MEAN_ANOMALY":297.0865,"EPHEMERIS_TYPE":0,"CLASSIFICATION_TYPE":"U","NORAD_CAT_ID":38833,"ELEMENT_SET_NO":999,"REV_AT_EPOCH":9728,"BSTAR":0,"MEAN_MOTION_DOT":-1.8e-7,"MEAN_MOTION_DDOT":0},{"OBJECT_NAME":"GPS BIIF-4  (PRN 27)","OBJECT_ID":"2013-023A","EPOCH":"2026-03-01T23:44:03.785280","MEAN_MOTION":2.00564153,"ECCENTRICITY":0.01415529,"INCLINATION":54.5878,"RA_OF_ASC_NODE":273.3391,"ARG_OF_PERICENTER":49.8819,"MEAN_ANOMALY":311.3944,"EPHEMERIS_TYPE":0,"CLASSIFICATION_TYPE":"U","NORAD_CAT_ID":39166,"ELEMENT_SET_NO":999,"REV_AT_EPOCH":9373,"BSTAR":0,"MEAN_MOTION_DOT":6.0e-8,"MEAN_MOTION_DDOT":0},{"OBJECT_NAME":"GPS BIIF-5  (PRN 30)","OBJECT_ID":"2014-008A","EPOCH":"2026-03-02T11:39:40.334400","MEAN_MOTION":2.00552925,"ECCENTRICITY":0.0082226,"INCLINATION":53.6376,"RA_OF_ASC_NODE":153.6733,"ARG_OF_PERICENTER":228.2234,"MEAN_ANOMALY":131.0919,"EPHEMERIS_TYPE":0,"CLASSIFICATION_TYPE":"U","NORAD_CAT_ID":39533,"ELEMENT_SET_NO":999,"REV_AT_EPOCH":8754,"BSTAR":0,"MEAN_MOTION_DOT":-1.3e-7,"MEAN_MOTION_DDOT":0},{"OBJECT_NAME":"GPS BIIF-6  (PRN 06)","OBJECT_ID":"2014-026A","EPOCH":"2026-03-01T18:24:25.876224","MEAN_MOTION":2.0056878,"ECCENTRICITY":0.00399027,"INCLINATION":56.5477,"RA_OF_ASC_NODE":335.7023,"ARG_OF_PERICENTER":324.3529,"MEAN_ANOMALY":35.4088,"EPHEMERIS_TYPE":0,"CLASSIFICATION_TYPE":"U","NORAD_CAT_ID":39741,"ELEMENT_SET_NO":999,"REV_AT_EPOCH":8638,"BSTAR":0,"MEAN_MOTION_DOT":-9.6e-7,"MEAN_MOTION_DDOT":0}]
